[{"OBJECT_NAME":"STARLINK-5516","OBJECT_ID":"2023-094AM","EPOCH":"2026-02-01T21:31:48.922464","MEAN_MOTION":15.0253681,"ECCENTRICITY":9.566e-5,"INCLINATION":43.0024,"RA_OF_ASC_NODE":211.9961,"ARG_OF_PERICENTER":257.0163,"MEAN_ANOMALY":103.0573,"EPHEMERIS_TYPE":0,"CLASSIFICATION_TYPE":"U","NORAD_CAT_ID":57253,"ELEMENT_SET_NO":999,"REV_AT_EPOCH":14188,"BSTAR":5.0817084e-5,"MEAN_MOTION_DOT":4.83e-6,"MEAN_MOTION_DDOT":0},{"OBJECT_NAME":"STARLINK-5490","OBJECT_ID":"2023-094AN","EPOCH":"2026-02-01T21:04:38.862048","MEAN_MOTION":15.025353,"ECCENTRICITY":0.0001266,"INCLINATION":43.0024,"RA_OF_ASC_NODE":211.8535,"ARG_OF_PERICENTER":269.6509,"MEAN_ANOMALY":90.4188,"EPHEMERIS_TYPE":0,"CLASSIFICATION_TYPE":"U","NORAD_CAT_ID":57254,"ELEMENT_SET_NO":999,"REV_AT_EPOCH":14188,"BSTAR":8.8755792e-5,"MEAN_MOTION_DOT":9.95e-6,"MEAN_MOTION_DDOT":0},{"OBJECT_NAME":"STARLINK-5481","OBJECT_ID":"2023-094AP","EPOCH":"2026-02-01T21:07:51.954816","MEAN_MOTION":15.0252997,"ECCENTRICITY":0.00012929,"INCLINATION":43.0023,"RA_OF_ASC_NODE":211.872,"ARG_OF_PERICENTER":267.3657,"MEAN_ANOMALY":92.7038,"EPHEMERIS_TYPE":0,"CLASSIFICATION_TYPE":"U","NORAD_CAT_ID":57255,"ELEMENT_SET_NO":999,"REV_AT_EPOCH":14188,"BSTAR":9.7403513e-5,"MEAN_MOTION_DOT":1.112e-5,"MEAN_MOTION_DDOT":0},{"OBJECT_NAME":"STARLINK-5512","OBJECT_ID":"2023-094AQ","EPOCH":"2026-02-02T04:37:42.997728","MEAN_MOTION":15.02536311,"ECCENTRICITY":0.00012053,"INCLINATION":43.0022,"RA_OF_ASC_NODE":209.9359,"ARG_OF_PERICENTER":267.3164,"MEAN_ANOMALY":92.7541,"EPHEMERIS_TYPE":0,"CLASSIFICATION_TYPE":"U","NORAD_CAT_ID":57256,"ELEMENT_SET_NO":999,"REV_AT_EPOCH":14193,"BSTAR":9.0095947e-5,"MEAN_MOTION_DOT":1.014e-5,"MEAN_MOTION_DDOT":0},{"OBJECT_NAME":"STARLINK-5503","OBJECT_ID":"2023-094AR","EPOCH":"2026-02-01T21:17:25.703520","MEAN_MOTION":15.02536613,"ECCENTRICITY":0.00014084,"INCLINATION":43.0033,"RA_OF_ASC_NODE":211.9204,"ARG_OF_PERICENTER":269.0536,"MEAN_ANOMALY":91.0145,"EPHEMERIS_TYPE":0,"CLASSIFICATION_TYPE":"U","NORAD_CAT_ID":57257,"ELEMENT_SET_NO":999,"REV_AT_EPOCH":14254,"BSTAR":2.4881037e-5,"MEAN_MOTION_DOT":1.32e-6,"MEAN_MOTION_DDOT":0},{"OBJECT_NAME":"STARLINK-5476","OBJECT_ID":"2023-094AS","EPOCH":"2026-02-01T20:59:52.595520","MEAN_MOTION":15.02531925,"ECCENTRICITY":0.00015753,"INCLINATION":43.0025,"RA_OF_ASC_NODE":211.8289,"ARG_OF_PERICENTER":262.0329,"MEAN_ANOMALY":98.0335,"EPHEMERIS_TYPE":0,"CLASSIFICATION_TYPE":"U","NORAD_CAT_ID":57258,"ELEMENT_SET_NO":999,"REV_AT_EPOCH":14188,"BSTAR":0.0001195388,"MEAN_MOTION_DOT":1.411e-5,"MEAN_MOTION_DDOT":0},{"OBJECT_NAME":"STARLINK-5026","OBJECT_ID":"2023-094AU","EPOCH":"2026-02-02T04:48:53.702784","MEAN_MOTION":15.02541,"ECCENTRICITY":0.00013059,"INCLINATION":43.0028,"RA_OF_ASC_NODE":209.9724,"ARG_OF_PERICENTER":268.6397,"MEAN_ANOMALY":91.4296,"EPHEMERIS_TYPE":0,"CLASSIFICATION_TYPE":"U","NORAD_CAT_ID":57260,"ELEMENT_SET_NO":999,"REV_AT_EPOCH":14257,"BSTAR":2.5941227e-5,"MEAN_MOTION_DOT":1.47e-6,"MEAN_MOTION_DDOT":0},{"OBJECT_NAME":"STARLINK-5485","OBJECT_ID":"2023-094AV","EPOCH":"2026-02-01T20:49:53.472000","MEAN_MOTION":15.02538048,"ECCENTRICITY":0.00012593,"INCLINATION":43.0021,"RA_OF_ASC_NODE":224.7845,"ARG_OF_PERICENTER":254.8179,"MEAN_ANOMALY":105.2524,"EPHEMERIS_TYPE":0,"CLASSIFICATION_TYPE":"U","NORAD_CAT_ID":57261,"ELEMENT_SET_NO":999,"REV_AT_EPOCH":14173,"BSTAR":0.00010081294,"MEAN_MOTION_DOT":1.159e-5,"MEAN_MOTION_DDOT":0},{"OBJECT_NAME":"STARLINK-5504","OBJECT_ID":"2023-094AW","EPOCH":"2026-02-01T21:03:02.712672","MEAN_MOTION":15.02534112,"ECCENTRICITY":0.00013491,"INCLINATION":43.0021,"RA_OF_ASC_NODE":211.8474,"ARG_OF_PERICENTER":265.0961,"MEAN_ANOMALY":94.9727,"EPHEMERIS_TYPE":0,"CLASSIFICATION_TYPE":"U","NORAD_CAT_ID":57262,"ELEMENT_SET_NO":999,"REV_AT_EPOCH":14188,"BSTAR":4.7550233e-5,"MEAN_MOTION_DOT":4.39e-6,"MEAN_MOTION_DDOT":0},{"OBJECT_NAME":"STARLINK-5509","OBJECT_ID":"2023-094AX","EPOCH":"2026-02-01T22:24:01.248192","MEAN_MOTION":15.02535503,"ECCENTRICITY":0.00011992,"INCLINATION":43.0027,"RA_OF_ASC_NODE":224.4149,"ARG_OF_PERICENTER":237.8628,"MEAN_ANOMALY":122.2098,"EPHEMERIS_TYPE":0,"CLASSIFICATION_TYPE":"U","NORAD_CAT_ID":57263,"ELEMENT_SET_NO":999,"REV_AT_EPOCH":14174,"BSTAR":3.4009228e-5,"MEAN_MOTION_DOT":2.56e-6,"MEAN_MOTION_DDOT":0},{"OBJECT_NAME":"STARLINK-5858","OBJECT_ID":"2023-094AY","EPOCH":"2026-02-02T04:42:29.506176","MEAN_MOTION":15.02546474,"ECCENTRICITY":0.00012741,"INCLINATION":43.0024,"RA_OF_ASC_NODE":209.939,"ARG_OF_PERICENTER":259.7759,"MEAN_ANOMALY":100.294,"EPHEMERIS_TYPE":0,"CLASSIFICATION_TYPE":"U","NORAD_CAT_ID":57264,"ELEMENT_SET_NO":999,"REV_AT_EPOCH":14193,"BSTAR":0.00016900142,"MEAN_MOTION_DOT":2.081e-5,"MEAN_MOTION_DDOT":0},{"OBJECT_NAME":"STARLINK-5890","OBJECT_ID":"2023-094AZ","EPOCH":"2026-02-02T06:00:02.000160","MEAN_MOTION":15.93492096,"ECCENTRICITY":0.00015985,"INCLINATION":42.9978,"RA_OF_ASC_NODE":185.4299,"ARG_OF_PERICENTER":273.9193,"MEAN_ANOMALY":46.228,"EPHEMERIS_TYPE":0,"CLASSIFICATION_TYPE":"U","NORAD_CAT_ID":57265,"ELEMENT_SET_NO":999,"REV_AT_EPOCH":575,"BSTAR":0.0024165088,"MEAN_MOTION_DOT":0.0089396,"MEAN_MOTION_DDOT":0.00034913915},{"OBJECT_NAME":"STARLINK-30198","OBJECT_ID":"2023-096A","EPOCH":"2026-02-02T01:29:34.402272","MEAN_MOTION":15.02559493,"ECCENTRICITY":0.00017326,"INCLINATION":43.0079,"RA_OF_ASC_NODE":57.1401,"ARG_OF_PERICENTER":272.5717,"MEAN_ANOMALY":87.4927,"EPHEMERIS_TYPE":0,"CLASSIFICATION_TYPE":"U","NORAD_CAT_ID":57290,"ELEMENT_SET_NO":999,"REV_AT_EPOCH":14225,"BSTAR":0.00022335538,"MEAN_MOTION_DOT":2.816e-5,"MEAN_MOTION_DDOT":0},{"OBJECT_NAME":"STARLINK-30239","OBJECT_ID":"2023-096B","EPOCH":"2026-02-02T01:24:48.523680","MEAN_MOTION":15.02543402,"ECCENTRICITY":0.00012373,"INCLINATION":43.003,"RA_OF_ASC_NODE":57.1099,"ARG_OF_PERICENTER":278.7061,"MEAN_ANOMALY":81.3641,"EPHEMERIS_TYPE":0,"CLASSIFICATION_TYPE":"U","NORAD_CAT_ID":57291,"ELEMENT_SET_NO":999,"REV_AT_EPOCH":14225,"BSTAR":0.00030061998,"MEAN_MOTION_DOT":3.86e-5,"MEAN_MOTION_DDOT":0},{"OBJECT_NAME":"STARLINK-30210","OBJECT_ID":"2023-096C","EPOCH":"2026-02-02T06:00:02.000160","MEAN_MOTION":15.79433858,"ECCENTRICITY":0.00292971,"INCLINATION":42.9718,"RA_OF_ASC_NODE":355.5126,"ARG_OF_PERICENTER":151.4365,"MEAN_ANOMALY":321.3478,"EPHEMERIS_TYPE":0,"CLASSIFICATION_TYPE":"U","NORAD_CAT_ID":57292,"ELEMENT_SET_NO":999,"REV_AT_EPOCH":598,"BSTAR":0.00099049562,"MEAN_MOTION_DOT":0.00194381,"MEAN_MOTION_DDOT":0},{"OBJECT_NAME":"STARLINK-30235","OBJECT_ID":"2023-096E","EPOCH":"2026-02-02T02:46:09.283008","MEAN_MOTION":15.02533519,"ECCENTRICITY":0.00012302,"INCLINATION":43.0056,"RA_OF_ASC_NODE":56.6775,"ARG_OF_PERICENTER":270.3536,"MEAN_ANOMALY":89.7165,"EPHEMERIS_TYPE":0,"CLASSIFICATION_TYPE":"U","NORAD_CAT_ID":57294,"ELEMENT_SET_NO":999,"REV_AT_EPOCH":14226,"BSTAR":4.0367521e-5,"MEAN_MOTION_DOT":3.42e-6,"MEAN_MOTION_DDOT":0}]
