STARLINK-5516           
1 57253U 23094AM  26032.89709401  .00000483  00000+0  50817-4 0  9990
2 57253  43.0024 211.9961 0000956 257.0163 103.0573 15.02536810141882
STARLINK-5490           
1 57254U 23094AN  26032.87822757  .00000995  00000+0  88756-4 0  9990
2 57254  43.0024 211.8535 0001266 269.6509  90.4188 15.02535300141881
STARLINK-5481           
1 57255U 23094AP  26032.88046244  .00001112  00000+0  97404-4 0  9993
2 57255  43.0023 211.8720 0001292 267.3657  92.7038 15.02529970141880
STARLINK-5512           
1 57256U 23094AQ  26033.19285877  .00001014  00000+0  90096-4 0  9997
2 57256  43.0022 209.9359 0001205 267.3164  92.7541 15.02536311141935
STARLINK-5503           
1 57257U 23094AR  26032.88710305  .00000132  00000+0  24881-4 0  9991
2 57257  43.0033 211.9204 0001408 269.0536  91.0145 15.02536613142542
STARLINK-5476           
1 57258U 23094AS  26032.87491430  .00001411  00000+0  11954-3 0  9993
2 57258  43.0025 211.8289 0001575 262.0329  98.0335 15.02531925141889
STARLINK-5026           
1 57260U 23094AU  26033.20062156  .00000147  00000+0  25941-4 0  9990
2 57260  43.0028 209.9724 0001305 268.6397  91.4296 15.02541000142570
STARLINK-5485           
1 57261U 23094AV  26032.86798000  .00001159  00000+0  10081-3 0  9998
2 57261  43.0021 224.7845 0001259 254.8179 105.2524 15.02538048141739
STARLINK-5504           
1 57262U 23094AW  26032.87711473  .00000439  00000+0  47550-4 0  9991
2 57262  43.0021 211.8474 0001349 265.0961  94.9727 15.02534112141881
STARLINK-5509           
1 57263U 23094AX  26032.93334778  .00000256  00000+0  34009-4 0  9990
2 57263  43.0027 224.4149 0001199 237.8628 122.2098 15.02535503141743
STARLINK-5858           
1 57264U 23094AY  26033.19617484  .00002081  00000+0  16900-3 0  9995
2 57264  43.0024 209.9390 0001274 259.7759 100.2940 15.02546474141931
STARLINK-5890           
1 57265U 23094AZ  26033.25002315  .00893960  34914-3  24165-2 0  9994
2 57265  42.9978 185.4299 0001598 273.9193  46.2280 15.93492096  5758
STARLINK-30198          
1 57290U 23096A   26033.06220373  .00002816  00000+0  22336-3 0  9995
2 57290  43.0079  57.1401 0001732 272.5717  87.4927 15.02559493142254
STARLINK-30239          
1 57291U 23096B   26033.05889495  .00003860  00000+0  30062-3 0  9996
2 57291  43.0030  57.1099 0001237 278.7061  81.3641 15.02543402142254
STARLINK-30210          
1 57292U 23096C   26033.25002315  .00194381  00000+0  99050-3 0  9998
2 57292  42.9718 355.5126 0029297 151.4365 321.3478 15.79433858  5982
STARLINK-30235          
1 57294U 23096E   26033.11538522  .00000342  00000+0  40368-4 0  9991
2 57294  43.0056  56.6775 0001230 270.3536  89.7165 15.02533519142260
